Program,Latitude,Longitude,Address,Zip,Site,Notes,Contact,Email,Website_corrupt,School Number,School,Hours_corrupt,BSEP_corrupt,ASEP,SEP,Cost,Scholarship/Financial Assistance,Transportation,Phone_corrupt,BSEP,Website,Hours,PlaceHolder1,PlaceHolder2,PlaceHolder3,PlaceHolder4,PlaceHolder5,Phone
CMS After School Enrichment Program,35.378647,-80.835724,"12201 Hambright Road Huntersville, NC 28078",28078,J.M. Alexander Middle School,N/A,Aja Glover,aja.glover@cms.k12.nc.us,http://www.cms.k12.nc.us/cmsdepartments/asep,305,3830,9:15AM-4:15PM,Yes,Yes,No,$50,N/A,No,(980) 343-5567,Yes,http://www.cms.k12.nc.us/cmsdepartments/asep,9:15AM-4:15PM,PK-12,,,,,(980) 343-5567
Y Readers,35.198667,-80.729253,"7800 Riding Trail Rd., Charlotte, NC 28212",28212,Albemarle Road Elementary School,N/A,Amanda Wilkinson,Amanda.wilkinson@ymca.org,http://www.ymcacharlotte.org/yreaders,N/A,N/A,"Afterschool: Until end of school day or until 5:15-5:45PM (site specific), Summer: 8AM-4PM",No,Yes,Yes,Free,N/A,Limited,(704) 716-6307,Yes,http://www.ymcacharlotte.org/yreaders,"Afterschool: Until end of school day or until 5:15PM-5:45PM (site specific), Summer: 8AM-4PM",K-3,,,,,(704) 716-6307
Y Readers,35.481788,-80.864255,"21126 Catawba Ave, Charlotte, NC 28031",28031,Cornelius Elementary School,N/A,Amanda Wilkinson,Amanda.wilkinson@ymca.org,http://www.ymcacharlotte.org/yreaders,N/A,N/A,"Afterschool: Until end of school day or until 5:15-5:45PM (site specific), Summer: 8AM-4PM",No,No,Yes,Free,N/A,Limited,(704) 716-6307,No,http://www.ymcacharlotte.org/yreaders,"Afterschool: Until end of school day or until 5:15PM-5:45PM (site specific), Summer: 8AM-4PM",K-3,,,,,(704) 716-6307
Y Readers,35.226351,-80.717395,"Hickory Grove Elementary 6709 Pence Rd., Charlotte, NC 28215",28215,Hickory Grove Elementary School,N/A,Amanda Wilkinson,Amanda.wilkinson@ymca.org,http://www.ymcacharlotte.org/yreaders,N/A,N/A,"Afterschool: Until end of school day or until 5:15-5:45PM (site specific), Summer: 8AM-4PM",No,No,Yes,Free,N/A,Limited,(704) 716-6307,No,http://www.ymcacharlotte.org/yreaders,"Afterschool: Until end of school day or until 5:15PM-5:45PM (site specific), Summer: 8AM-4PM",K-3,,,,,(704) 716-6307
Y Readers,35.268318,-80.784697," 5100 Snow White Ln., Charlotte, NC 28213",28213,Hidden Valley Elementary School,N/A,Amanda Wilkinson,Amanda.wilkinson@ymca.org,http://www.ymcacharlotte.org/yreaders,N/A,N/A,"Afterschool: Until end of school day or until 5:15-5:45PM (site specific), Summer: 8AM-4PM",No,No,Yes,Free,N/A,Limited,(704) 716-6307,No,http://www.ymcacharlotte.org/yreaders,"Afterschool: Until end of school day or until 5:15PM-5:45PM (site specific), Summer: 8AM-4PM",K-3,,,,,(704) 716-6307
Y Readers,35.255854,-80.803176,"125 W. Craighead Rd., Charlotte, NC 28206;",28206,Highland Renaissance Academy,N/A,Amanda Wilkinson,Amanda.wilkinson@ymca.org,http://www.ymcacharlotte.org/yreaders,N/A,N/A,"Afterschool: Until end of school day or until 5:15-5:45PM (site specific), Summer: 8AM-4PM",No,No,Yes,Free,N/A,Limited,(704) 716-6307,No,http://www.ymcacharlotte.org/yreaders,"Afterschool: Until end of school day or until 5:15PM-5:45PM (site specific), Summer: 8AM-4PM",K-3,,,,,(704) 716-6307
Y Readers,35.132835,-80.859906,"2520 Huntingtowne Farms Lane, Charlotte, NC 28210",28210,Huntingtowne Farms Elementary School,N/A,Amanda Wilkinson,Amanda.wilkinson@ymca.org,http://www.ymcacharlotte.org/yreaders,N/A,N/A,"Afterschool: Until end of school day or until 5:15-5:45PM (site specific), Summer: 8AM-4PM",No,No,Yes,Free,N/A,Limited,(704) 716-6307,No,http://www.ymcacharlotte.org/yreaders,"Afterschool: Until end of school day or until 5:15PM-5:45PM (site specific), Summer: 8AM-4PM",K-3,,,,,(704) 716-6307
Y Readers,35.14013,-80.895251,"8300 Nations Ford Road Charlotte, NC 28217",28217,Nations Ford Elementary ,N/A,Amanda Wilkinson,Amanda.wilkinson@ymca.org,http://www.ymcacharlotte.org/yreaders,N/A,N/A,"Afterschool: Until end of school day or until 5:15-5:45PM (site specific), Summer: 8AM-4PM",No,Yes,Yes,Free,N/A,Limited,(704) 716-6307,Yes,http://www.ymcacharlotte.org/yreaders,"Afterschool: Until end of school day or until 5:15PM-5:45PM (site specific), Summer: 8AM-4PM",K-3,,,,,(704) 716-6307
Y Readers,35.205038,-80.905423,"4108 W Tyvola, Charlotte, NC 28208",28208,Reid Park (K-8),N/A,Amanda Wilkinson,Amanda.wilkinson@ymca.org,http://www.ymcacharlotte.org/yreaders,N/A,N/A,"Afterschool: Until end of school day or until 5:15-5:45PM (site specific), Summer: 8AM-4PM",No,Yes,Yes,Free,N/A,Limited,(704) 716-6307,Yes,http://www.ymcacharlotte.org/yreaders,"Afterschool: Until end of school day or until 5:15PM-5:45PM (site specific), Summer: 8AM-4PM",K-3,,,,,(704) 716-6307
CMS After School Enrichment Program,35.412176,-80.872735,"14550 Ranson Road Huntersville, NC 28078",28078,Torrence Creek Elementary,N/A,Anita  Brown,anita.brown@cms.k12.nc.us,http://www.cms.k12.nc.us/cmsdepartments/asep,557,695,8:15-3:15,Yes,Yes,No,"$30-$55, varies by program",N/A,No,(980) 343-5567,Yes,http://www.cms.k12.nc.us/cmsdepartments/asep,8:15AM-3:15PM,PK-12,,,,,(980) 343-5567
CMS After School Enrichment Program,35.166336,-80.864349,"805 Seneca Place Charlotte, NC 28210",28210,Pinewood Elementary School,N/A,Annie  Fiadjigbe,annie.fiadjigbe@cms.k12.nc.us,http://www.cms.k12.nc.us/cmsdepartments/asep,501,5825,7:45-2:45,No,Yes,No,$35,N/A,No,(980) 343-5567,No,http://www.cms.k12.nc.us/cmsdepartments/asep,7:45AM-2:45PM,PK-12,,,,,(980) 343-5567
CMS After School Enrichment Program,35.215451,-80.825681,"1601 Park Drive Charlotte, NC 28204",28204,Elizabeth Traditional School,N/A,April Gales,april.gales@cms.k12.nc.us,http://www.cms.k12.nc.us/cmsdepartments/asep,382,5700,7:45-2:45,No,Yes,No,$65,N/A,No,(980) 343-5567,No,http://www.cms.k12.nc.us/cmsdepartments/asep,7:45AM-2:45PM,PK-12,,,,,(980) 343-5567
CMS After School Enrichment Program,35.093596,-81.026018,"15321 York Road Charlotte, NC 28278",28278,Palisades Park Elementary School,N/A,Benita  Smith- Mitchell,benitaa.smith@cms.k12.nc.us,http://www.cms.k12.nc.us/cmsdepartments/asep,493,9895,9:15AM-4:15PM,Yes,Yes,No,"$35-$50, varies by program",N/A,No,(980) 343-5567,Yes,http://www.cms.k12.nc.us/cmsdepartments/asep,9:15AM-4:15PM,PK-12,,,,,(980) 343-5567
CMS After School Enrichment Program,35.184052,-80.689629,"7300 Lebanon Road Charlotte, NC 28227",28227,Lebanon Road Elementary School,N/A,Bethine Dempsey,bethinel.dempsey@cms.k12.nc.us,http://www.cms.k12.nc.us/cmsdepartments/asep,440,3640,7:45-2:45,No,Yes,No,$65,N/A,No,(980) 343-5567,No,http://www.cms.k12.nc.us/cmsdepartments/asep,7:45AM-2:45PM,PK-12,,,,,(980) 343-5567
CMS After School Enrichment Program,35.152946,-80.817424,"4330 Foxcroft Road Charlotte, NC 28211",28211,Sharon Elementary School,N/A,Beverlee  Jones-Withers,beverleea.jones@cms.k12.nc.us,http://www.cms.k12.nc.us/cmsdepartments/asep,530,6725,8:00-3:00,No,Yes,No,$60,N/A,No,(980) 343-5567,No,http://www.cms.k12.nc.us/cmsdepartments/asep,8:00AM-3:00PM,PK-12,,,,,(980) 343-5567
CMS After School Enrichment Program,35.324724,-80.865507,"6700 Beatties Ford Road Charlotte, NC 28216",28216,Hornets Nest Elementary School,N/A,Bobbie  Loving ,bobbie.loving@cms.k12.nc.us,http://www.cms.k12.nc.us/cmsdepartments/asep,416,6110,8:45-3:45,Yes,Yes,No,"$40-$45, varies by program",N/A,No,(980) 343-5567,Yes,http://www.cms.k12.nc.us/cmsdepartments/asep,8:45AM-3:45PM,PK-12,,,,,(980) 343-5567
The Greater Enrichment Program Inc.,35.232852,-80.890898,"2401 Belfast Dr, Charlotte, NC 28208",28208,Ashley Park Pre K-8 School,N/A,Bronica Glover,bglover@gepinc.org,http://www.gepinc.org,N/A,N/A,2:45-6:30PM,No,Yes,No,"Free, but must meet eligibility requirements",N/A,Yes,(704) 334-8518,No,http://www.gepinc.org,2:45PM-6:30PM,K-8,,,,,(704) 334-8518
The Greater Enrichment Program Inc.,35.220161,-80.782655,"3508 Draper Avenue, Charlotte, NC 28205",28205,Merry Oaks International Academy ,N/A,Bronica Glover,bglover@gepinc.org,http://www.gepinc.org,N/A,N/A,2:45-6:30PM,No,Yes,No,"Free, but must meet eligibility requirements",N/A,Yes,(704) 334-8518,No,http://www.gepinc.org,2:45PM-6:30PM,K-8,,,,,(704) 334-8518
The Greater Enrichment Program Inc.,35.255309,-80.898806,"538 Bradford Dr. Charlotte, NC 28208",28208,Thomasboro Academy ,N/A,Bronica Glover,bglover@gepinc.org,http://www.gepinc.org,N/A,N/A,2:45-6:30PM,No,Yes,No,"Free, but must meet eligibility requirements",N/A,Yes,(704) 334-8518,No,http://www.gepinc.org,2:45PM-6:30PM,K-8,,,,,(704) 334-8518
CMS After School Enrichment Program,35.3999,-80.924868,"13659 Beatties Ford Road Huntersville, NC 28078",28078,Barnette Elementary School,N/A,Capricia  Billings,capricia.billings@cms.k12.nc.us,http://www.cms.k12.nc.us/cmsdepartments/asep,328,372,7:45AM-2:45PM,No,Yes,No,$65,N/A,No,(980) 343-5567,No,http://www.cms.k12.nc.us/cmsdepartments/asep,8:45AM-3:45PM,PK-12,,,,,(980) 343-5567
CMS After School Enrichment Program,35.17747,-80.848871,"3701 Haven Drive Charlotte, NC 28209",28209,Park Road Elementary School,N/A,Catherine Tillman,catherine.tillman@cms.k12.nc.us,http://www.cms.k12.nc.us/cmsdepartments/asep,492,5830,9:15AM-4:15PM,Yes,Yes,No,"$35-$50, varies by program",N/A,No,(980) 343-5567,Yes,http://www.cms.k12.nc.us/cmsdepartments/asep,9:15AM-4:15PM,PK-12,,,,,(980) 343-5567
CMS After School Enrichment Program,35.157564,-80.746375,"8301 Monroe Road Charlotte, NC 28212",28212,Greenway Park Elementary School,N/A,Chandra  Wright,chandra.wright@cms.k12.nc.us,http://www.cms.k12.nc.us/cmsdepartments/asep,398,5060,8:00-3:00,Yes,Yes,No,"$25-$60, varies by program",N/A,No,(980) 343-5567,Yes,http://www.cms.k12.nc.us/cmsdepartments/asep,8:00AM-3:00PM,PK-12,,,,,(980) 343-5567
CMS After School Enrichment Program,35.251222,-80.85033,"1810 Oaklawn Avenue Charlotte, NC 28216",28216,Oaklawn Language Academy,N/A,Charles Traylor,charlese.traylor@cms.k12.nc.us,http://www.cms.k12.nc.us/cmsdepartments/asep,488,400,9:15AM-4:15PM,Yes,Yes,No,"$35-$50, varies by program",N/A,No,(980) 343-5567,Yes,http://www.cms.k12.nc.us/cmsdepartments/asep,9:15AM-4:15PM,PK-12,,,,,(980) 343-5567
CMS After School Enrichment Program,35.244103,-80.84152,"1415 Hamilton St, Charlotte, NC 28206",28206,Walter G. Byers School,N/A,Chinita Woody-Brown,chinita1.woody-brown@cms.k12.nc.us,http://www.cms.k12.nc.us/cmsdepartments/asep,574,6940,8:15-3:15,No,Yes,No,$35,N/A,No,(980) 343-5567,No,http://www.cms.k12.nc.us/cmsdepartments/asep,8:15AM-3:15PM,PK-12,,,,,(980) 343-5567
CMS After School Enrichment Program,35.143209,-80.781785,"6400 Prett Court Charlotte, NC 28270",28270,Lansdowne Elementary School,N/A,Chrisshawn  Young,chrisshawn.young@cms.k12.nc.us,http://www.cms.k12.nc.us/cmsdepartments/asep,438,6733,9:15AM-4:15PM,Yes,Yes,No,"$35-$50, varies by program",N/A,No,(980) 343-5567,Yes,http://www.cms.k12.nc.us/cmsdepartments/asep,9:15AM-4:15PM,PK-12,,,,,(980) 343-5567
CMS After School Enrichment Program,35.378465,-80.76364,"7242 Highland Creek Parkway Charlotte, NC 28269",28269,Highland Creek Elementary School,N/A,Christine  Dyvig,christine.dyvig@cms.k12.nc.us,http://www.cms.k12.nc.us/cmsdepartments/asep,411,1065,8:00-3:00,Yes,Yes,No,"$25-$60, varies by program",N/A,No,(980) 343-5567,Yes,http://www.cms.k12.nc.us/cmsdepartments/asep,8:00AM-3:00PM,PK-12,,,,,(980) 343-5567
CMS After School Enrichment Program,35.215905,-80.685321,"7400 Harrisburg Road Charlotte, NC 28215",28215,J.H. Gunn Elementary School,N/A,Cyntavia Bryant,cyntavia.bryant@cms.k12.nc.us,http://www.cms.k12.nc.us/cmsdepartments/asep,478,6477,7:45-2:45,No,Yes,No,$65,Yes,Yes,(980) 343-5567,No,http://www.cms.k12.nc.us/cmsdepartments/asep,7:45AM-2:45PM,PK-12,,,,,(980) 343-5567
CMS After School Enrichment Program,35.131399,-80.836872,"6001 Quail Hollow Road Charlotte, NC 28210",28210,Beverly Woods Elementary School,N/A,Cynthia  Kerns-King,cynthia.kerns@cms.k12.nc.us,http://www.cms.k12.nc.us/cmsdepartments/asep,322,3627,7:45AM-2:45PM,No,Yes,No,$65,N/A,No,(980) 343-5567,No,http://www.cms.k12.nc.us/cmsdepartments/asep,9:15AM-4:15PM,PK-12,,,,,(980) 343-5567
CMS After School Enrichment Program,35.081887,-80.887715,"204 Lowry Street Pineville, NC 28134",28134,Pineville Elementary School,N/A,Dana Montgomery ,dana.montgomery@cms.k12.nc.us,http://www.cms.k12.nc.us/cmsdepartments/asep,500,3920,8:00-3:00,Yes,Yes,No,"$25-$60, varies by program",N/A,No,(980) 343-5567,Yes,http://www.cms.k12.nc.us/cmsdepartments/asep,8:00AM-3:00PM,PK-12,,,,,(980) 343-5567
LIFT After school Academy,35.261517,-80.915026,"1430 Allenbrook Dr Charlotte, NC 28208",28208,Allenbrook Elementary School,N/A,Darryl Bego,darrylbego@ydiinc.org,http://www.ydiinc.org,N/A,N/A,3-6PM,No,Yes,No,N/A,N/A,Yes,(704) 562-3806,No,http://www.ydiinc.org,3:00-6:00PM,8-12,,,,,(704) 562-3806
LIFT After school Academy,35.232852,-80.890898,"2401 Belfast Dr, Charlotte, NC 28208",28208,Ashley Park Pre K-8 School,N/A,Darryl Bego,darrylbego@ydiinc.org,http://www.ydiinc.org,N/A,N/A,3-6PM,No,Yes,No,N/A,N/A,Yes,(704) 562-3806,No,http://www.ydiinc.org,3:00-6:00PM,8-12,,,,,(704) 562-3806
LIFT After school Academy,35.239078,-80.865092,"501 S. Bruns Avenue, Charlottre, NC 28208",28208,Bruns Academy,N/A,Darryl Bego,darrylbego@ydiinc.org,http://www.ydiinc.org,N/A,N/A,3-6PM,No,Yes,No,N/A,N/A,Yes,(704) 562-3806,No,http://www.ydiinc.org,3:00-6:00PM,8-12,,,,,(704) 562-3806
LIFT After school Academy,35.257596,-80.824634,"2801 Lucena St, Charlotte, NC 28206",28206,Druid Hills Academy,N/A,Darryl Bego,darrylbego@ydiinc.org,http://www.ydiinc.org,N/A,N/A,3-6PM,No,Yes,No,N/A,N/A,Yes,(704) 562-3806,No,http://www.ydiinc.org,3:00-6:00PM,8-12,,,,,(704) 562-3806
LIFT After school Academy,35.300226,-80.838993,"5850 Statesville Rd, Charlotte, NC 28269",28269,Ranson Middle School,N/A,Darryl Bego,darrylbego@ydiinc.org,http://www.ydiinc.org,N/A,N/A,3-6PM,No,Yes,No,N/A,N/A,Yes,(704) 562-3806,No,http://www.ydiinc.org,3:00-6:00PM,8-12,,,,,(704) 562-3806
LIFT After school Academy,35.300458,-80.845443,"5833 Milhaven Lane, Charlotte, NC 28369",28369,Statesville Road Elementary,N/A,Darryl Bego,darrylbego@ydiinc.org,http://www.ydiinc.org,N/A,N/A,3-6PM,No,Yes,No,N/A,N/A,Yes,(704) 562-3806,No,http://www.ydiinc.org,3:00-6:00PM,8-12,,,,,(704) 562-3806
LIFT After school Academy,35.255309,-80.898806,"538 Bradford Dr, Charlotte, NC 28208",28208,Thomasboro Academy,N/A,Darryl Bego,darrylbego@ydiinc.org,http://www.ydiinc.org,N/A,N/A,3-6PM,No,Yes,No,N/A,N/A,Yes,(704) 562-3806,No,http://www.ydiinc.org,3:00-6:00PM,8-12,,,,,(704) 562-3806
LIFT After school Academy,35.244103,-80.84152,"1415 Hamilton St, Charlotte, NC 28206",28206,Walter G. Byers School,N/A,Darryl Bego,darrylbego@ydiinc.org,http://www.ydiinc.org,N/A,N/A,3-6PM,No,Yes,No,N/A,N/A,Yes,(704) 562-3806,No,http://www.ydiinc.org,3:00-6:00PM,8-12,,,,,(704) 562-3806
LIFT After school Academy,35.265404,-80.858518,"2219 Senior Dr, Charlotte, NC 28216",28216,West Charlotte High School,N/A,Darryl Bego,darrylbego@ydiinc.org,http://www.ydiinc.org,N/A,N/A,3-6PM,No,Yes,No,N/A,N/A,Yes,(704) 562-3806,No,http://www.ydiinc.org,3:00-6:00PM,8-12,,,,,(704) 562-3806
CMS After School Enrichment Program,35.03609,-80.824077,"9500 Community House Road Charlotte, NC 28277",28277,Community House Middle School,N/A,David Diebolt,john.diebolt@cms.k12.nc.us,http://www.cms.k12.nc.us/cmsdepartments/asep,344,5820,9:15AM-4:15PM,Yes,Yes,No,"$35-$50, varies by program",N/A,No,(980) 343-5567,Yes,http://www.cms.k12.nc.us/cmsdepartments/asep,9:15AM-4:15PM,PK-12,,,,,(980) 343-5567
CMS After School Enrichment Program,35.268318,-80.784697,"5100 Snow White Lane Charlotte, NC 28213",28213,Hidden Valley Elementary School,N/A,Dawn  Duport,dawnw.duport@cms.k12.nc.us,http://www.cms.k12.nc.us/cmsdepartments/asep,412,6810,7:45-2:45,No,Yes,No,$35,N/A,No,(980) 343-5567,No,http://www.cms.k12.nc.us/cmsdepartments/asep,7:45AM-2:45PM,PK-12,,,,,(980) 343-5567
CMS After School Enrichment Program,35.068202,-80.755052,"4101 McKee Road Charlotte, NC 28270",28270,McKee Road Elementary School,N/A,Demetri  Pharr,demetri.pharr@cms.k12.nc.us,http://www.cms.k12.nc.us/cmsdepartments/asep,451,3970,7:45-2:45,No,Yes,No,$65,N/A,No,(980) 343-5567,No,http://www.cms.k12.nc.us/cmsdepartments/asep,7:45AM-2:45PM,PK-12,,,,,(980) 343-5567
CMS After School Enrichment Program,35.346572,-80.804563,"4911 Hucks Road Charlotte, NC 28269",28269,Croft Community School,N/A,Denise  Williams,lavonyad.williams@cms.k12.nc.us,http://www.cms.k12.nc.us/cmsdepartments/asep,349,6720,9:15AM-4:15PM,Yes,Yes,No,"$30-$55, varies by program",N/A,No,(980) 343-5567,Yes,http://www.cms.k12.nc.us/cmsdepartments/asep,9:15AM-4:15PM,PK-12,,,,,(980) 343-5567
CMS After School Enrichment Program,35.351046,-80.889247,"9213-A Beatties Ford Road Huntersville, NC 28078",28078,Long Creek Elementary School,N/A,Derreka Ledbetter,derreka.ledbetter@cms.k12.nc.us,http://www.cms.k12.nc.us/cmsdepartments/asep,444,6095,8:00-3:00,Yes,Yes,No,"$25-$60, varies by program",N/A,No,(980) 343-5567,Yes,http://www.cms.k12.nc.us/cmsdepartments/asep,8:00AM-3:00PM,PK-12,,,,,(980) 343-5567
CMS After School Enrichment Program,35.291341,-80.945034,"1300 Cathey Road Charlotte, NC 28214",28214,Paw Creek Elementary School,N/A,Donna Freeman,donnagalmon.freeman@cms.k12.nc.us,http://www.cms.k12.nc.us/cmsdepartments/asep,494,6088,7:45-2:45,No,Yes,No,$65,N/A,No,(980) 343-5567,No,http://www.cms.k12.nc.us/cmsdepartments/asep,7:45AM-2:45PM,PK-12,,,,,(980) 343-5567
CMS After School Enrichment Program,35.132835,-80.859906,"2520 Huntingtowne Farms Lane  Charlotte, NC 28210",28210,Huntingtowne Farms Elementary School,N/A,Donna Miller,donna.miller@cms.k12.nc.us,http://www.cms.k12.nc.us/cmsdepartments/asep,422,3625,8:15-3:15,No,Yes,No,$55,N/A,No,(980) 343-5567,No,http://www.cms.k12.nc.us/cmsdepartments/asep,8:15AM-3:15PM,PK-12,,,,,(980) 343-5567
CMS After School Enrichment Program,35.467717,-80.837605,"11900 Bailey Road Cornelius, NC 28031",28031,Bailey Middle School,N/A,Ella Booker,ella.booker@cms.k12.nc.us,http://www.cms.k12.nc.us/cmsdepartments/asep,313,1068,9:15AM-4:15PM,Yes,Yes,No,$50,N/A,No,(980) 343-5567,Yes,http://www.cms.k12.nc.us/cmsdepartments/asep,9:15AM-4:15PM,PK-12,,,,,(980) 343-5567
CMS After School Enrichment Program,35.233796,-80.788381,3301 Country Club Road Charlotte NC 28205,28205,Shamrock Gardens Elementary School,N/A,Ella Booker,ella.booker@cms.k12.nc.us,http://www.cms.k12.nc.us/cmsdepartments/asep,527,6440,8:15-3:15,No,Yes,No,$55,N/A,No,(980) 343-5567,No,http://www.cms.k12.nc.us/cmsdepartments/asep,8:15AM-3:15PM,PK-12,,,,,(980) 343-5567
CMS After School Enrichment Program,35.21156,-80.889337,"1546 Walton Road Charlotte, NC 28208",28208,Barringer Academic Center,N/A,Erica Hall,erica.hall@cms.k12.nc.us,http://www.cms.k12.nc.us/cmsdepartments/asep,316,5533,9:15AM-4:15PM,Yes,Yes,No,"$35-$50, varies by program",N/A,No,(980) 343-5567,Yes,http://www.cms.k12.nc.us/cmsdepartments/asep,7:45AM-2:45PM,PK-12,,,,,(980) 343-5567
CMS After School Enrichment Program,35.190151,-80.834539,"2132 Radcliffe Avenue Charlotte, NC 28207",28207,Myers Park Traditional Elementary School,N/A,Ezetta  Gibbs,ezettad.gibbs@cms.k12.nc.us,http://www.cms.k12.nc.us/cmsdepartments/asep,464,5522,9:15AM-4:15PM,Yes,Yes,No,"$35-$50, varies by program",N/A,No,(980) 343-5567,Yes,http://www.cms.k12.nc.us/cmsdepartments/asep,9:15AM-4:15PM,PK-12,,,,,(980) 343-5567
CMS After School Enrichment Program,35.223836,-80.625175,"13501 Albemarle Road Charlotte, NC 28227",28227,Clear Creek Elementary School,N/A,Genevieve  McIlwain,genevievea.mcillwain@cms.k12.nc.us,http://www.cms.k12.nc.us/cmsdepartments/asep,336,692,9:15AM-4:15PM,Yes,Yes,No,"$35-$50, varies by program",N/A,No,(980) 343-5567,Yes,http://www.cms.k12.nc.us/cmsdepartments/asep,8:00AM-3:00PM,PK-12,,,,,(980) 343-5567
CMS After School Enrichment Program,35.179261,-80.797665,"300 Greenwich Road Charlotte, NC 28211",28211,Cotswold Elementary School,N/A,Haley Velez,haleya.velez@cms.k12.nc.us,http://www.cms.k12.nc.us/cmsdepartments/asep,346,3905,8:45-3:45,Yes,Yes,No,"$40-$45, varies by program",N/A,No,(980) 343-5567,Yes,http://www.cms.k12.nc.us/cmsdepartments/asep,9:15AM-4:15PM,PK-12,,,,,(980) 343-5567
CMS After School Enrichment Program,35.187128,-80.744173,"7101 Idlewild Road Charlotte, NC 28212",28212,Idlewild Elementary School,N/A,Holly Adderton,holly.adderton@cms.k12.nc.us,http://www.cms.k12.nc.us/cmsdepartments/asep,424,6411,9:15AM-4:15PM,Yes,Yes,No,"$35-$50, varies by program",N/A,No,(980) 343-5567,Yes,http://www.cms.k12.nc.us/cmsdepartments/asep,9:15AM-4:15PM,PK-12,,,,,(980) 343-5567
CMS After School Enrichment Program,35.167676,-80.834633,"2840 Colony Road Charlotte, NC 28211",28211,Selwyn Elementary School,N/A,Jacqueline Shepperd,jacqueline.shepperd@cms.k12.nc.us,http://www.cms.k12.nc.us/cmsdepartments/asep,522,5835,7:45-2:45,No,Yes,No,$65,N/A,No,(980) 343-5567,No,http://www.cms.k12.nc.us/cmsdepartments/asep,7:45AM-2:45PM,PK-12,,,,,(980) 343-5567
Citizen Schools,35.263393,-80.778458,"500 Bilmark Avenue, Charlotte, NC 28213 ",28213,"Martin Luther King, Jr. ",N/A,Jake House,jakehouse@citizenschools.org,http://www.citizenschools.org,N/A,N/A,3-6PM,No,Yes,No,Free,N/A,Yes,(704) 247-9806,No,http://www.citizenschools.org,3:00-6:00PM,6-8,,,,,(704) 247-9806
Citizen Schools,35.113502,-80.85409,"2901 Smithfield Church Road, Charlotte, NC 28210",28210,Quail Hollow ,N/A,Jake House,jakehouse@citizenschools.org,http://www.citizenschools.org,N/A,N/A,3-6PM,No,Yes,No,Free,N/A,Yes,(704) 247-9806,No,http://www.citizenschools.org,3:00-6:00PM,6-8,,,,,(704) 247-9806
Studio 345--a youth development program of the Arts & Science Council,35.228872,-80.839381,"345 North College Street, Studio 345, Charlotte, NC 28202",28202,Studio 345 @ Spirit Square,N/A,Janice Tucker,janice.tucker@artsandscience.org,http://www.asceducation.org/studio-345,N/A,N/A,3:30-6PM Monday-Friday,No,Yes,No,Free for Mecklenburg County 9th-12th Grade Students,N/A,Yes,(704) 724-1642,No,http://www.asceducation.org/studio-345,3:30-6PM Monday-Friday,9-12,,,,,(704) 724-1642
WINGS for kids,35.239078,-80.865092,"501 S. Bruns Avenue, Charlottre, NC 28208",28208,Bruns Academy,N/A,Jazzi Goode,jazzi@wingsforkids.org,http://www.wingsforkids.org,N/A,N/A,3:15-6:15PM,No,Yes,No,Free,N/A,No,(704) 626-2509,No,http://www.wingsforkids.org,3:15PM-6:15PM,K-6,,,,,(704) 626-2509
Charlotte Mecklenburg PAL After-School Enrichment Program,35.241638,-80.877885,"2921 Tuckaseegee Rd., Charlotte NC 28208",28208,Bette Rae Thomas Rec. Center,N/A,Jeff Hood,jhood@palcharlotte.org,http://www.PALCharlotte.org,N/A,N/A,"2PM-7PM, 8AM-6PM on teacher work days and during many holidays",No,Yes,No,"$50 PAL Membership, $30 Program Registration Fee, $10/Week Program Fee",N/A,Yes,(704) 336-2105,No,http://www.PALCharlotte.org,"2:00PM-7:00PM, 8:00AM-6:00PM on teacher work days and during many holidays",3-11,,,,,(704) 336-2105
Charlotte Mecklenburg PAL After-School Enrichment Program,35.24419,-80.840695,"1330 Spring Street, Charlotte NC 28206",28206,Greenville Neighborhood Center ,N/A,Jeff Hood,jhood@palcharlotte.org,http://www.PALCharlotte.org,N/A,N/A,"2PM-7PM, 8AM-6PM on teacher work days and during many holidays",No,Yes,No,"$50 PAL Membership, $30 Program Registration Fee, $10/Week Program Fee",N/A,Yes,(704) 336-2105,No,http://www.PALCharlotte.org,"2:00PM-7:00PM, 8:00AM-6:00PM on teacher work days and during many holidays",3-11,,,,,(704) 336-2105
Charlotte Mecklenburg PAL After-School Enrichment Program,35.21471,-80.777696,"4012 Central Ave., Charlotte NC 28205",28205,Memorial United Methodist Church ,N/A,Jeff Hood,jhood@palcharlotte.org,http://www.PALCharlotte.org,N/A,N/A,"2PM-7PM, 8AM-6PM on teacher work days and during many holidays",No,Yes,No,"$50 PAL Membership, $30 Program Registration Fee, $10/Week Program Fee",N/A,Yes,(704) 336-2105,No,http://www.PALCharlotte.org,"2:00PM-7:00PM, 8:00AM-6:00PM on teacher work days and during many holidays",3-11,,,,,(704) 336-2105
Johnston YMCA Afterschool/Day Camp Program,35.246427,-80.807968,"3025 North Davidson Street, Charlotte, NC 28205",28205,YMCA,N/A,Jemarion Young,jemarion.young@ymcacharlotte.org,http://www.ymcacharlotte.org/johnston,N/A,N/A,2-6:30PM (School Year); 7-6:00PM (Camp),No,Yes,Yes,"$60/Week Members, $115/Week NonMembers",Yes,Yes,(704) 716-6300,No,http://www.ymcacharlotte.org/johnston,2:00-6:30PM (School Year); 7:00AM-6:00PM (Camp),PK-12,,,,,(704) 716-6300
Building Educated Leaders for Life (BELL),35.214909,-80.824797,"1609 E. 5th Street, Charlotte, NC 28204",28204,Caldwell Presbyterian Church,BELL would only like us to list their office address,Jerri Haigler,jerri.haigler@experiencebell.org,http://www.experiencebell.org,N/A,N/A,8AM-3PM,No,Yes,No,Free,N/A,Yes,(704) 706-7122,No,http://www.experiencebell.org,8:00AM-3:00PM,K-8,,,,,(704) 706-7122
CMS After School Enrichment Program,35.207705,-80.800373,"701 Briar Creek Road Charlotte, NC 28205",28205,Chantilly Montessori School,N/A,Jinaki  Peele,jinakik.winstead@cms.k12.nc.us,http://www.cms.k12.nc.us/cmsdepartments/asep,394,5750,9:15AM-4:15PM,Yes,Yes,No,$50,N/A,No,(980) 343-5567,Yes,http://www.cms.k12.nc.us/cmsdepartments/asep,7:45AM-2:45PM,PK-12,,,,,(980) 343-5567
CMS After School Enrichment Program,35.466531,-80.867992,"9611 Westmoreland Road Cornelius, NC 28031",28031,J.V. Washam Elementary School,N/A,JoAnn Carpenter,joann.carpenter@cms.k12.nc.us,http://www.cms.k12.nc.us/cmsdepartments/asep,433,1071,7:45-2:45,No,Yes,No,$65,N/A,No,(980) 343-5567,No,http://www.cms.k12.nc.us/cmsdepartments/asep,7:45AM-2:45PM,PK-12,,,,,(980) 343-5567
CMS After School Enrichment Program,35.300527,-80.896231,"1825 Oakdale Road Charlotte, NC 28216",28216,Oakdale Elementary School,N/A,Johnnie Duncan,johnniew.duncan@cms.k12.nc.us,http://www.cms.k12.nc.us/cmsdepartments/asep,485,6076,8:45-3:45,Yes,Yes,No,"$40-$45, varies by program",N/A,No,(980) 343-5567,Yes,http://www.cms.k12.nc.us/cmsdepartments/asep,8:45AM-3:45PM,PK-12,,,,,(980) 343-5567
CMS After School Enrichment Program,35.26086,-80.859179,"2400 Hildebrand Street Charlotte, NC 28216",28216,University Park Creative Arts,N/A,JoWanda  Deas,jowanda.deas@cms.k12.nc.us,http://www.cms.k12.nc.us/cmsdepartments/asep,565,5178,9:15AM-4:15PM,Yes,Yes,No,"$35-$50, varies by program",N/A,No,(980) 343-5567,Yes,http://www.cms.k12.nc.us/cmsdepartments/asep,9:15AM-4:15PM,PK-12,,,,,(980) 343-5567
CMS After School Enrichment Program,35.229101,-80.832444,"715 North Caldwell Street Charlotte, NC 28202",28202,First Ward Elementary School,N/A,Kelly  Jones,kellyk.jones@cms.k12.nc.us,http://www.cms.k12.nc.us/cmsdepartments/asep,385,5436,8:15-3:15,Yes,Yes,No,"$30-$55, varies by program",N/A,No,(980) 343-5567,Yes,http://www.cms.k12.nc.us/cmsdepartments/asep,8:15AM-3:15PM,PK-12,,,,,(980) 343-5567
CMS After School Enrichment Program,35.115237,-80.971762,"13620 Erwin Road Charlotte, NC 28273",28273,Lake Wylie Elementary School,N/A,Ken Porter,kenneth.porterii@cms.k12.nc.us,http://www.cms.k12.nc.us/cmsdepartments/asep,436,3680,8:00-3:00,Yes,Yes,No,"$25-$60, varies by program",N/A,No,(980) 343-5567,Yes,http://www.cms.k12.nc.us/cmsdepartments/asep,8:00AM-3:00PM,PK-12,,,,,(980) 343-5567
CMS After School Enrichment Program,35.043647,-80.824854,"9201 Bryant Farms Road Charlotte, NC 28277",28277,Hawk Ridge Elementary School,N/A,Kim Adkins,kimberly.adkins@cms.k12.nc.us,http://www.cms.k12.nc.us/cmsdepartments/asep,406,5927,7:45-2:45,No,Yes,No,$65,N/A,No,(980) 343-5567,No,http://www.cms.k12.nc.us/cmsdepartments/asep,7:45AM-2:45PM,PK-12,,,,,(980) 343-5567
CMS After School Enrichment Program,35.300458,-80.845443,"5833 Milhaven Lane, Charlotte, NC 28369",28269,Statesville Road Elementary,N/A,Kimmi Howard,kimmi.howard@cms.k12.nc.us,http://www.cms.k12.nc.us/cmsdepartments/asep,546,6815,8:00-3:00,No,Yes,No,$60,N/A,No,(980) 343-5567,No,http://www.cms.k12.nc.us/cmsdepartments/asep,8:00AM-3:00PM,PK-12,,,,,(980) 343-5567
CLAY Career Leadership Academy for Youth,35.232957,-80.875261,"2122 Freedom Drive, Charlotte, NC 28208",28208,Goodwill Industries of the Southern Piedmont,N/A,Kwain Bryant,kwain.bryant@goodwillsp.org,http://www.goodwillsp.org ,N/A,N/A,3PM-6:30PM,No,No,Yes,Free,N/A,Yes,(704) 332-0317,No,http://www.goodwillsp.org ,3:00PM-6:30PM,9-12,,,,,(704) 332-0317
CMS After School Enrichment Program,35.17314,-80.731076,"8801 Eaglewind Drive Charlotte, NC 28212",28212,Piney Grove Elementary School,N/A,Laquansa Lloyd,laquansa.lloyd@cms.k12.nc.us,http://www.cms.k12.nc.us/cmsdepartments/asep,503,6470,8:15-3:15,Yes,Yes,No,"$30-$55, varies by program",N/A,No,(980) 343-5567,Yes,http://www.cms.k12.nc.us/cmsdepartments/asep,8:15AM-3:15PM,PK-12,,,,,(980) 343-5567
CMS After School Enrichment Program,35.489724,-80.848407,"635 South Street Davidson, NC 28036",28036,Davidson Elementary School,N/A,LaRhonda Hill,larhonda.dawkins@cms.k12.nc.us,http://www.cms.k12.nc.us/cmsdepartments/asep,362,6540,9:15-3:15,Yes,Yes,No,"$35-$50, varies by program",N/A,No,(980) 343-5567,Yes,http://www.cms.k12.nc.us/cmsdepartments/asep,9:15AM-3:15PM,PK-12,,,,,(980) 343-5567
CMS After School Enrichment Program,35.257596,-80.824634,"2801 Lucena St, Charlotte, NC 28206",28206,Druid Hills Academy,N/A,Lashell Laughlin,lashell.laughlin@cms.k12.nc.us,http://www.cms.k12.nc.us/cmsdepartments/asep,367,2240,7:45-2:45,No,Yes,No,$65,N/A,No,(980) 343-5567,No,http://www.cms.k12.nc.us/cmsdepartments/asep,7:45AM-2:45PM,PK-12,,,,,(980) 343-5567
CMS After School Enrichment Program,35.348274,-80.725389,"14015 Mallard Roost Road Charlotte, NC 28262",28262,Stoney Creek Elementary,N/A,Latanya Johnson,latanya.johnson@cms.k12.nc.us,http://www.cms.k12.nc.us/cmsdepartments/asep,521,344-1030,8:00-3:00,No,Yes,No,$60,N/A,No,(980) 343-5567,No,http://www.cms.k12.nc.us/cmsdepartments/asep,8:00AM-3:00PM,PK-12,,,,,(980) 343-5567
CMS After School Enrichment Program,35.260463,-80.684296,"10801 Plaza Road Extension Charlotte, NC 28215",28215,Reedy Creek Elementary School,N/A,Latonya  Johnson,latonya.johnson@cms.k12.nc.us,http://www.cms.k12.nc.us/cmsdepartments/asep,516,6480,8:00-3:00,Yes,Yes,No,"$25-$60, varies by program",N/A,No,(980) 343-5567,Yes,http://www.cms.k12.nc.us/cmsdepartments/asep,8:00AM-3:00PM,PK-12,,,,,(980) 343-5567
CMS After School Enrichment Program,35.308353,-80.978754,"1015 Mt. Holly-Huntersville Road Charlotte, NC 28214",28214,River Oaks Academy,N/A,Laverne  Everett ,laverne.everett@cms.k12.nc.us,http://www.cms.k12.nc.us/cmsdepartments/asep,463,344-1020,8:45-3:45,Yes,Yes,No,"$40-$45, varies by program",N/A,No,(980) 343-5567,Yes,http://www.cms.k12.nc.us/cmsdepartments/asep,8:45AM-3:45PM,PK-12,,,,,(980) 343-5567
YWCA Youth Programs,35.195992,-80.724947,5027 North Idlewild Rd Charlotte NC 28227,28227,Albemarle Road,N/A,Lelia Smallwood,lsmallwood@ywcacentralcarolinas.org,http://www.ywcacentralcarolinas.org,N/A,N/A,"After School 2:30-6:30PM, Summer Program 9AM-5PM",No,Yes,Yes,Free,N/A,No,(704) 525-5770,No,http://www.ywcacentralcarolinas.org,"After School 2:30-6:30PM, Summer Program 9AM-5PM",K-5,,,,,(704) 525-5770
YWCA Youth Programs,35.196765,-80.809979,124 Skyland Ave Charlotte NC 28205,28205,Billingsville,N/A,Lelia Smallwood,lsmallwood@ywcacentralcarolinas.org,http://www.ywcacentralcarolinas.org,N/A,N/A,N/A,No,Yes,Yes,Free,N/A,No,(704) 525-5770,No,http://www.ywcacentralcarolinas.org,N/A,K-5,,,,,(704) 525-5770
YWCA Youth Programs,35.145311,-80.861247,6513 Leafcrest Lane Charlotte NC 28210,28210,Leafcrest,N/A,Lelia Smallwood,lsmallwood@ywcacentralcarolinas.org,http://www.ywcacentralcarolinas.org,N/A,N/A,N/A,No,Yes,Yes,Free,N/A,No,(704) 525-5770,No,http://www.ywcacentralcarolinas.org,N/A,K-5,,,,,(704) 525-5770
YWCA Youth Programs,35.183478,-80.854581,3420 Park Rd Charlotte NC 28209,28209,Park Road,N/A,Lelia Smallwood,lsmallwood@ywcacentralcarolinas.org,http://www.ywcacentralcarolinas.org,N/A,N/A,N/A,No,Yes,Yes,Free,N/A,No,(704) 525-5770,No,http://www.ywcacentralcarolinas.org,N/A,K-5,,,,,(704) 525-5770
YWCA Youth Programs,35.20341,-80.873913,435 Fairwood Ave Charlotte NC 28203,28203,Southside,N/A,Lelia Smallwood,lsmallwood@ywcacentralcarolinas.org,http://www.ywcacentralcarolinas.org,N/A,N/A,N/A,No,Yes,Yes,Free,N/A,No,(704) 525-5770,No,http://www.ywcacentralcarolinas.org,N/A,K-5,,,,,(704) 525-5770
YWCA Youth Programs,35.272496,-80.796455,943 W. Sugar Creek Rd Charlotte NC 28213,28213,Sugaw Creek,N/A,Lelia Smallwood,lsmallwood@ywcacentralcarolinas.org,http://www.ywcacentralcarolinas.org,N/A,N/A,N/A,No,Yes,Yes,Free,N/A,No,(704) 525-5770,No,http://www.ywcacentralcarolinas.org,N/A,K-5,,,,,(704) 525-5770
YWCA Youth Programs,35.238018,-80.738243,4005 Sunridge Ln Charlotte NC 28215,28215,Sunridge ,N/A,Lelia Smallwood,lsmallwood@ywcacentralcarolinas.org,http://www.ywcacentralcarolinas.org,N/A,N/A,N/A,No,Yes,Yes,Free,N/A,No,(704) 525-5770,No,http://www.ywcacentralcarolinas.org,N/A,K-5,,,,,(704) 525-5770
YWCA Youth Programs,35.248574,-80.90713,4820 Tuckaseegee Rd Charlotte NC 28208,28208,Tuckaseegee ,N/A,Lelia Smallwood,lsmallwood@ywcacentralcarolinas.org,http://www.ywcacentralcarolinas.org,N/A,N/A,N/A,No,Yes,Yes,Free,N/A,No,(704) 525-5770,No,http://www.ywcacentralcarolinas.org,N/A,K-5,,,,,(704) 525-5770
CMS After School Enrichment Program,35.184952,-80.871456,"4000 Applegate Road Charlotte, NC 28209",28209,Collinswood Language Academy,N/A,Linda Crawford,linda.crawford@cms.k12.nc.us,http://www.cms.k12.nc.us/cmsdepartments/asep,338,6922,7:45AM-2:45PM,No,Yes,No,$65,N/A,No,(980) 343-5567,No,http://www.cms.k12.nc.us/cmsdepartments/asep,9:15AM-4:15PM,PK-12,,,,,(980) 343-5567
CMS After School Enrichment Program,35.255854,-80.803176,"125 West Craighead Road Charlotte, NC 28206",28206,Highland Renaissance Academy,Tution free for grant students,Linda Stout,lindal.stout@cms.k12.nc.us,http://www.cms.k12.nc.us/cmsdepartments/asep,414,5511,8:45-3:45,Yes,Yes,No,"$40-$45, varies by program",Yes,No,(980) 343-5567,Yes,http://www.cms.k12.nc.us/cmsdepartments/asep,8:45AM-3:45PM,PK-12,,,,,(980) 343-5567
Discovery Place Camps,35.188212,-80.843685,"1658 Sterling Rd., Charlotte, NC 28209",28209,Charlotte Nature Museum ,N/A,Lindsay Stewart,lndsays@discoveryplace.org,http://www.discoveryplace.org/education/summer_camps/,N/A,N/A,Varies by Camp,No,Yes,Yes,Varies by Camp,N/A,No,(704) 372-6261 x300,No,http://www.discoveryplace.org/education/summer_camps/,Varies by Camp,PK-8,,,,,(704) 372-6261 x300
Discovery Place Camps,35.229601,-80.841125,"301 N. Tryon St.,Charlotte, NC 28202",28202,Discovery Place ,N/A,Lindsay Stewart,lndsays@discoveryplace.org,http://www.discoveryplace.org/education/summer_camps/,N/A,N/A,Varies by Camp,No,Yes,Yes,Varies by Camp,N/A,No,(704) 372-6261 x300,No,http://www.discoveryplace.org/education/summer_camps/,Varies by Camp,PK-8,,,,,(704) 372-6261 x300
Discovery Place Camps,35.410518,-80.843843,"105 Gilead Huntersville, NC 28078",28078,Discovery Place Kids ,N/A,Lindsay Stewart,lndsays@discoveryplace.org,http://www.discoveryplace.org/education/summer_camps/,N/A,N/A,Varies by Camp,No,Yes,Yes,Varies by Camp,N/A,No,(704) 372-6261 x300,No,http://www.discoveryplace.org/education/summer_camps/,Varies by Camp,PK-8,,,,,(704) 372-6261 x300
CMS After School Enrichment Program,35.481788,-80.864255,"21126 Catawba Avenue Cornelius, NC 28031",28031,Cornelius Elementary School,N/A,Lisa Martin,lisal.martin@cms.k12.nc.us,http://www.cms.k12.nc.us/cmsdepartments/asep,345,689,9:15AM-4:15PM,Yes,Yes,No,"$35-$50, varies by program",N/A,No,(980) 343-5567,Yes,http://www.cms.k12.nc.us/cmsdepartments/asep,7:45AM-2:45PM,PK-12,,,,,(980) 343-5567
CMS After School Enrichment Program,35.426777,-80.872277,"15410 Stumptown Road Huntersville, NC 28078",28078,Grand Oak Elementary School,N/A,Lori Scott,lori.scott@cms.k12.nc.us,http://www.cms.k12.nc.us/cmsdepartments/asep,558,2063,8:15-3:15,Yes,Yes,No,"$30-$55, varies by program",N/A,No,(980) 343-5567,Yes,http://www.cms.k12.nc.us/cmsdepartments/asep,8:15AM-3:15PM,PK-12,,,,,(980) 343-5567
CMS After School Enrichment Program,35.335344,-80.774296,"9801 Mallard Creek Road Charlotte, NC 28269",28269,Mallard Creek Elementary School,N/A,Mae Bennett,mae.bennett@cms.k12.nc.us,http://www.cms.k12.nc.us/cmsdepartments/asep,446,3980,7:45-2:45,No,Yes,No,$65,N/A,No,(980) 343-5567,No,http://www.cms.k12.nc.us/cmsdepartments/asep,7:45AM-2:45PM,PK-12,,,,,(980) 343-5567
CMS After School Enrichment Program,35.249511,-80.941241,2028 Little Rock Road Charlotte NC 28214,28214,Tuckaseegee Elementary School,N/A,Marie  Sadler ,a.sadler@cms.k12.nc.us,http://www.cms.k12.nc.us/cmsdepartments/asep,562,6055,8:45-3:45,Yes,Yes,No,"$40-$45, varies by program",N/A,No,(980) 343-5567,Yes,http://www.cms.k12.nc.us/cmsdepartments/asep,8:45AM-3:45PM,PK-12,,,,,(980) 343-5567
CMS After School Enrichment Program,35.211497,-80.851415,"405 East Park Avenue Charlotte, NC 28203",28203,Dilworth Elementary School,N/A,Mark Bumgardner,mark.bumgardner@cms.k12.nc.us,http://www.cms.k12.nc.us/cmsdepartments/asep,357,3900,8:45-3:45,Yes,Yes,No,"$40-$45, varies by program",N/A,No,(980) 343-5567,Yes,http://www.cms.k12.nc.us/cmsdepartments/asep,8:45AM-3:45PM,PK-12,,,,,(980) 343-5567
The Salvation Army Boys & Girls Clubs of Greater Charlotte,35.22872,-80.82148,"901 Belmont Avenue Charlotte, NC 28205",28205,Belmont Avenue Club ,N/A,Marty Clary,marty.clary@uss.salvationarmy.org,http://www.bgccharlotte.org,N/A,N/A,11am-7pm Monday-Friday after school; 8:00am/10:00am (some sites)-6:00pm summer,No,Yes,No,$5 per year membership,N/A,Limited,(704) 714-4709,No,http://www.bgccharlotte.org,11AM-7PM Monday-Friday after school; 8:00AM/10:00AM (some sites)-6:00PM summer,K-12,,,,,(704) 714-4709
The Salvation Army Boys & Girls Clubs of Greater Charlotte,35.239619,-80.837152,"534 Spratt St, Charlotte, NC 28202",28202,Center of Hope Club ,N/A,Marty Clary,marty.clary@uss.salvationarmy.org,http://www.bgccharlotte.org,N/A,N/A,11am-7pm Monday-Friday after school; 8:00am/10:00am (some sites)-6:00pm summer,No,Yes,No,$5 per year membership,N/A,Limited,(704) 714-4709,No,http://www.bgccharlotte.org,11AM-7PM Monday-Friday after school; 8:00AM/10:00AM (some sites)-6:00PM summer,K-12,,,,,(704) 714-4709
The Salvation Army Boys & Girls Clubs of Greater Charlotte,35.249798,-80.819056,"2600 N Pine Street, Charlotte, NC 28206",28206,Dillehay Courts Club Charlotte,Must be a resident of Dillehay Courts Complex.,Marty Clary,marty.clary@uss.salvationarmy.org,http://www.bgccharlotte.org,N/A,N/A,11am-7pm Monday-Friday after school; 8:00am/10:00am (some sites)-6:00pm summer,No,Yes,No,$5 per year membership,N/A,Limited,(704) 714-4709,No,http://www.bgccharlotte.org,11AM-7PM Monday-Friday after school; 8:00AM/10:00AM (some sites)-6:00PM summer,K-12,,,,,(704) 714-4709
The Salvation Army Boys & Girls Clubs of Greater Charlotte,35.186606,-80.85738,"940 Marsh Road, Charlotte, NC 28209",28209,Marsh Road Club ,N/A,Marty Clary,marty.clary@uss.salvationarmy.org,http://www.bgccharlotte.org,N/A,N/A,11am-7pm Monday-Friday after school; 8:00am/10:00am (some sites)-6:00pm summer,No,Yes,No,$5 per year membership,N/A,Limited,(704) 714-4709,No,http://www.bgccharlotte.org,11AM-7PM Monday-Friday after school; 8:00AM/10:00AM (some sites)-6:00PM summer,K-12,,,,,(704) 714-4709
The Salvation Army Boys & Girls Clubs of Greater Charlotte,35.237904,-80.740844,"2901 Milton Road, Charlotte, NC 28215",28215,Milton Road Club ,N/A,Marty Clary,marty.clary@uss.salvationarmy.org,http://www.bgccharlotte.org,N/A,N/A,11am-7pm Monday-Friday after school; 8:00am/10:00am (some sites)-6:00pm summer,No,Yes,No,$5 per year membership,N/A,Limited,(704) 714-4709,No,http://www.bgccharlotte.org,11AM-7PM Monday-Friday after school; 8:00AM/10:00AM (some sites)-6:00PM summer,K-12,,,,,(704) 714-4709
The Salvation Army Boys & Girls Clubs of Greater Charlotte,35.211202,-80.916881,"1720 Vilma Street, Charlotte, NC 28208",28208,West Boulevard Club - Southview Community Center ,N/A,Marty Clary,marty.clary@uss.salvationarmy.org,http://www.bgccharlotte.org,N/A,N/A,11am-7pm Monday-Friday after school; 8:00am/10:00am (some sites)-6:00pm summer,No,Yes,No,$5 per year membership,N/A,Limited,(704) 714-4709,No,http://www.bgccharlotte.org,11AM-7PM Monday-Friday after school; 8:00AM/10:00AM (some sites)-6:00PM summer,K-12,,,,,(704) 714-4709
CMS After School Enrichment Program,35.41144,-80.847032,"200 Gilead Road Huntersville, NC 28078",28078,Huntersville Elementary School,N/A,Marvet Spencer,marvet.spencer@cms.k12.nc.us,http://www.cms.k12.nc.us/cmsdepartments/asep,420,3835,7:45-2:45,No,Yes,No,$65,N/A,No,(980) 343-5567,No,http://www.cms.k12.nc.us/cmsdepartments/asep,7:45AM-2:45PM,PK-12,,,,,(980) 343-5567
Girls on the Run,35.198369,-80.825126,"120 Cottage Place, Charlotte, NC 28207",28207,Girls on the Run,N/A,McKenna Collins,mcollins@girlsontherun.org,http://www.gotrcharlotte.org,N/A,N/A,Hours Vary,No,Yes,No,$160,Yes,No,(704) 910-8970,No,http://www.gotrcharlotte.org,Hours Vary,3-8,,,,,(704) 910-8970
CMS After School Enrichment Program,35.072628,-80.769937,"10045 Providence Church Lane Charlotte, NC 28277",28277,Providence Spring Elementary,N/A,Michael  Jenner,michaela.jenner@cms.k12.nc.us,http://www.cms.k12.nc.us/cmsdepartments/asep,507,6935,8:00-3:00,No,Yes,No,$60,N/A,No,(980) 343-5567,No,http://www.cms.k12.nc.us/cmsdepartments/asep,8:00AM-3:00PM,PK-12,,,,,(980) 343-5567
Bruce Irons Camp Fund,35.200029,-80.82478,"725 Providence Rd.,Suite 212, Charlotte, NC, 28207",28207,Villa Square Shopping Center,N/A,Mollie James,mjames@bruceironscampfund.org,http://www.bruceironscampfund.org/,N/A,N/A,N/A,No,Yes,No,N/A,N/A,Yes,N/A,No,http://www.bruceironscampfund.org/,N/A,K-12,,,,,N/A
CMS After School Enrichment Program,35.237663,-80.850375,"329 N. Irwin Avenue Charlotte, NC 28202",28202,Irwin Academic Center,N/A,Montangi  Blount,montangim.blount@cms.k12.nc.us,http://www.cms.k12.nc.us/cmsdepartments/asep,571,5480,9:15AM-4:15PM,Yes,Yes,No,"$35-$50, varies by program",N/A,No,(980) 343-5567,Yes,http://www.cms.k12.nc.us/cmsdepartments/asep,9:15AM-4:15PM,PK-12,,,,,(980) 343-5567
Right Moves for Youth,35.198948,-80.729208,"6900 Democracy Drive Charlotte, NC 28212",28212,Albemarle Road Middle School,N/A,N/A,info@rightmovesforyouth.org,http://www.rightmovesforyouth.org,N/A,N/A,8:30AM-5PM Monday-Friday,No,Yes,No,Free,Yes,Limited,(704) 377-4425,No,http://www.rightmovesforyouth.org,8:30AM-5:00PM Monday-Friday,6-12,,,,,(704) 377-4425
Right Moves for Youth,35.232852,-80.890898,"2401 Belfast Dr, Charlotte, NC 28208",28208,Ashley Park Pre K-8 School,N/A,N/A,info@rightmovesforyouth.org,http://www.rightmovesforyouth.org,N/A,N/A,8:30AM-5PM Monday-Friday,No,Yes,No,Free,Yes,Limited,(704) 377-4425,No,http://www.rightmovesforyouth.org,8:30AM-5:00PM Monday-Friday,6-12,,,,,(704) 377-4425
Right Moves for Youth,35.239078,-80.865092,"501 S. Bruns Avenue, Charlottre, NC 28208",28208,Bruns Academy,N/A,N/A,info@rightmovesforyouth.org,http://www.rightmovesforyouth.org,N/A,N/A,8:30AM-5PM Monday-Friday,No,Yes,No,Free,Yes,Limited,(704) 377-4425,No,http://www.rightmovesforyouth.org,8:30AM-5:00PM Monday-Friday,6-12,,,,,(704) 377-4425
An Angel's Touch Youth Enrichment Program,35.319956,-80.891528,"1713 Sunset Rd., Charlotte, NC 28216",28216,Canaan Christian Center,N/A,N/A,realliveangels@yahoo.com,http://www.realliveangels.com,N/A,N/A,1:30-6:30PM Extended for holidays and teacher workdays 7AM-6:30PM,No,Yes,No,$70/week (if transportation is needed tuition may vary),N/A,Yes,(704) 493-3143,No,http://www.realliveangels.com,1:30-6:30PM Extended for holidays and teacher workdays 7AM-6:30PM,PK-12,,,,,(704) 493-3143
Right Moves for Youth,35.246462,-80.75043,"6200 Starhaven Drive Charlotte, NC 28215",28215,Cochrane Collegiate Academy ,N/A,N/A,info@rightmovesforyouth.org,http://www.rightmovesforyouth.org,N/A,N/A,8:30AM-5PM Monday-Friday,No,Yes,No,Free,Yes,Limited,(704) 377-4425,No,http://www.rightmovesforyouth.org,8:30AM-5:00PM Monday-Friday,6-12,,,,,(704) 377-4425
Right Moves for Youth,35.303865,-80.944863,"500 Kentberry Drive Charlotte, NC 28214",28214,Coulwood ,N/A,N/A,info@rightmovesforyouth.org,http://www.rightmovesforyouth.org,N/A,N/A,8:30AM-5PM Monday-Friday,No,Yes,No,Free,Yes,Limited,(704) 377-4425,No,http://www.rightmovesforyouth.org,8:30AM-5:00PM Monday-Friday,6-12,,,,,(704) 377-4425
Right Moves for Youth,35.257596,-80.824634,"2801 Lucena St, Charlotte, NC 28206",28206,Druid Hills Academy,N/A,N/A,info@rightmovesforyouth.org,http://www.rightmovesforyouth.org,N/A,N/A,8:30AM-5PM Monday-Friday,No,Yes,No,Free,Yes,Limited,(704) 377-4425,No,http://www.rightmovesforyouth.org,8:30AM-5:00PM Monday-Friday,6-12,,,,,(704) 377-4425
Right Moves for Youth,35.175567,-80.759235,"6800 Monroe Rd, Charlotte, NC 28212",28212,East Mecklenburg ,N/A,N/A,info@rightmovesforyouth.org,http://www.rightmovesforyouth.org,N/A,N/A,8:30AM-5PM Monday-Friday,No,Yes,No,Free,Yes,Limited,(704) 377-4425,No,http://www.rightmovesforyouth.org,8:30AM-5:00PM Monday-Friday,6-12,,,,,(704) 377-4425
Clara H. Jones Summer Institute @ First Baptist-West,35.250397,-80.851511,"1801 Oaklawn Avenue, Charlotte, NC 28216",28216,First Baptist Church,N/A,N/A,info@charlottecsa.org,http://www.fbcwest.org,N/A,N/A,"7:30AM-5:45PM, Mon-Fri (six weeks in Summer)",No,Yes,No,$925,Yes,Limited,(704) 372-3742,No,http://www.fbcwest.org,"7:30AM-5:45PM, Mon-Fri (six weeks in Summer)",K-8,,,,,(704) 372-3742
First Baptist-West Music & Tutoring Afterschool Program,35.250397,-80.851511,"1801 Oaklawn Avenue, Charlotte, NC 28216",28216,First Baptist Church,N/A,N/A,info@charlottecsa.org,http://www.fbcwest.org,N/A,N/A,3-6:30PM,No,Yes,No,Free to students attending title I schools,N/A,Limited,(704) 372-3742,No,http://www.fbcwest.org,3:00-6:00PM,K-8,,,,,(704) 372-3742
GAP (Gang Alternative Principles) Program,35.250397,-80.851511,"1801 Oaklawn Avenue, Charlotte, NC 28216",28216,First Baptist Church,N/A,N/A,info@charlottecsa.org,http://www.fbcwest.org,N/A,N/A,"9AM-1PM for 12 weeks, Fall & Spring Sessions",No,Yes,No,Free,N/A,Limited,(704) 372-3742,No,http://www.fbcwest.org,"9:00AM-1:00PM for 12 weeks, Fall & Spring Sessions",7-12,,,,,(704) 372-3742
Right Moves for Youth,35.242232,-80.78287,"1100 Eastway Dr, Charlotte, NC 28205",28205,Garinger ,N/A,N/A,info@rightmovesforyouth.org,http://www.rightmovesforyouth.org,N/A,N/A,8:30AM-5PM Monday-Friday,No,Yes,No,Free,Yes,Limited,(704) 377-4425,No,http://www.rightmovesforyouth.org,8:30AM-5:00PM Monday-Friday,6-12,,,,,(704) 377-4425
"Girl Scouts, Hornets' Nest Council",35.186949,-80.745167,"7007 Idlewild Rd, Charlotte, NC 28212",28212,Girl Scouts,N/A,N/A,N/A,http://www.hngirlscouts.org,N/A,N/A,"Afterschool, evenings and weekends",No,Yes,No,$15/Year,Yes,No,(704) 731-6500,No,http://www.hngirlscouts.org,"Afterschool, evenings and weekends",K-12,,,,,(704) 731-6500
"Faith, Hope, and, Love Mentoring",35.211812,-80.858246,"1800 South Blvd, Charlotte, NC 28203",28203,Grace Covenant Church ,N/A,N/A,kdavisfhl@gmail.com,N/A,N/A,N/A,3-6PM,No,Yes,No,"Free, with required parent involvement",N/A,Yes,(704) 516-6595,No,N/A,3:00-6:30PM,K-7,,,,,(704) 516-6595
Right Moves for Youth,35.236076,-80.9035,"2001 Alleghany St, Charlotte, NC 28208",28208,Harding ,N/A,N/A,info@rightmovesforyouth.org,http://www.rightmovesforyouth.org,N/A,N/A,8:30AM-5PM Monday-Friday,No,Yes,No,Free,Yes,Limited,(704) 377-4425,No,http://www.rightmovesforyouth.org,8:30AM-5:00PM Monday-Friday,6-12,,,,,(704) 377-4425
Right Moves for Youth,35.263393,-80.778458,"500 Bilmark Avenue Charlotte, NC 28213",28213,"Martin Luther King, Jr. ",N/A,N/A,info@rightmovesforyouth.org,http://www.rightmovesforyouth.org,N/A,N/A,8:30AM-5PM Monday-Friday,No,Yes,No,Free,Yes,Limited,(704) 377-4425,No,http://www.rightmovesforyouth.org,8:30AM-5:00PM Monday-Friday,6-12,,,,,(704) 377-4425
Right Moves for Youth,35.202534,-80.876398,"3351 Griffith St, Charlotte, NC 28203",28203,Military & Global Leadership Academy (Marie G. Davis) ,N/A,N/A,info@rightmovesforyouth.org,http://www.rightmovesforyouth.org,N/A,N/A,8:30AM-5PM Monday-Friday,No,Yes,No,Free,Yes,Limited,(704) 377-4425,No,http://www.rightmovesforyouth.org,8:30AM-5:00PM Monday-Friday,6-12,,,,,(704) 377-4425
Right Moves for Youth,35.171515,-80.833079,"2400 Colony Rd, Charlotte, NC 28209",28209,Myers Park High School,N/A,N/A,info@rightmovesforyouth.org,http://www.rightmovesforyouth.org,N/A,N/A,8:30AM-5PM Monday-Friday,No,Yes,No,Free,Yes,Limited,(704) 377-4425,No,http://www.rightmovesforyouth.org,8:30AM-5:00PM Monday-Friday,6-12,,,,,(704) 377-4425
Right Moves for Youth,35.259777,-80.730372,"7601 The Plaza Charlotte, NC 28215",28215,Northridge ,N/A,N/A,info@rightmovesforyouth.org,http://www.rightmovesforyouth.org,N/A,N/A,8:30AM-5PM Monday-Friday,No,Yes,No,Free,Yes,Limited,(704) 377-4425,No,http://www.rightmovesforyouth.org,8:30AM-5:00PM Monday-Friday,6-12,,,,,(704) 377-4425
Right Moves for Youth,35.257073,-80.856705,"1415 Beatties Ford Rd, Charlotte, NC 28216",28216,Northwest School of the Arts,N/A,N/A,info@rightmovesforyouth.org,http://www.rightmovesforyouth.org,N/A,N/A,8:30AM-5PM Monday-Friday,No,Yes,No,Free,Yes,Limited,(704) 377-4426,No,http://www.rightmovesforyouth.org,8:30AM-5:00PM Monday-Friday,6-12,,,,,(704) 377-4426
Right Moves for Youth,35.238826,-80.891853,"1430 Alleghany St, Charlotte, NC 28208",28208,Phillip O. Berry ,N/A,N/A,info@rightmovesforyouth.org,http://www.rightmovesforyouth.org,N/A,N/A,8:30AM-5PM Monday-Friday,No,Yes,No,Free,Yes,Limited,(704) 377-4425,No,http://www.rightmovesforyouth.org,8:30AM-5:00PM Monday-Friday,6-12,,,,,(704) 377-4425
Right Moves for Youth,35.113502,-80.85409,"2901 Smithfield Church Road Charlotte, NC 28210",28210,Quail Hollow ,N/A,N/A,info@rightmovesforyouth.org,http://www.rightmovesforyouth.org,N/A,N/A,8:30AM-5PM Monday-Friday,No,Yes,No,Free,Yes,Limited,(704) 377-4425,No,http://www.rightmovesforyouth.org,8:30AM-5:00PM Monday-Friday,6-12,,,,,(704) 377-4425
Right Moves for Youth,35.300226,-80.838993,"5850 Statesville Road Charlotte, NC 28269",28269,Ranson Middle School,N/A,N/A,info@rightmovesforyouth.org,http://www.rightmovesforyouth.org,N/A,N/A,8:30AM-5PM Monday-Friday,No,Yes,No,Free,Yes,Limited,(704) 377-4425,No,http://www.rightmovesforyouth.org,8:30AM-5:00PM Monday-Friday,6-12,,,,,(704) 377-4425
Right Moves for Youth,35.205038,-80.905423,"4108 West Tyvola Road Charlotte, NC 28208",28208,Reid Park (k-8),N/A,N/A,info@rightmovesforyouth.org,http://www.rightmovesforyouth.org,N/A,N/A,8:30AM-5PM Monday-Friday,No,Yes,No,Free,Yes,Limited,(704) 377-4425,No,http://www.rightmovesforyouth.org,8:30AM-5:00PM Monday-Friday,6-12,,,,,(704) 377-4425
Talent Discovery Coaching,35.071505,-80.829487,"6336 Mock Orange Drive, Charlotte, NC 28277",28277,Residence ,N/A,N/A,christopher@talentdiscoveryeducation.com,http://www.TalentDiscoveryEducation.com,N/A,N/A,9AM-5PM,No,Yes,No,$20/hour,N/A,No,(704) 612-9588,No,http://www.TalentDiscoveryEducation.com,9:00AM-5:00PM,K-12,,,,,(704) 612-9588
Right Moves for Youth,35.213923,-80.640189,"10505 Clear Creek Commerce Dr, Charlotte, NC 28227",28227,Rocky River ,N/A,N/A,info@rightmovesforyouth.org,http://www.rightmovesforyouth.org,N/A,N/A,8:30AM-5PM Monday-Friday,No,Yes,No,Free,Yes,Limited,(704) 377-4425,No,http://www.rightmovesforyouth.org,8:30AM-5:00PM Monday-Friday,6-12,,,,,(704) 377-4425
Right Moves for Youth,35.197216,-80.856261,"2700 Dorchester Place Charlotte, NC 28209",28209,Sedgefield Middle School,N/A,N/A,info@rightmovesforyouth.org,http://www.rightmovesforyouth.org,N/A,N/A,8:30AM-5PM Monday-Friday,No,Yes,No,Free,Yes,Limited,(704) 377-4425,No,http://www.rightmovesforyouth.org,8:30AM-5:00PM Monday-Friday,6-12,,,,,(704) 377-4425
Right Moves for Youth,35.244103,-80.84152,"1415 Hamilton St, Charlotte, NC 28206",28206,Walter G. Byers School,N/A,N/A,info@rightmovesforyouth.org,http://www.rightmovesforyouth.org,N/A,N/A,8:30AM-5PM Monday-Friday,No,Yes,No,Free,Yes,Limited,(704) 377-4425,No,http://www.rightmovesforyouth.org,8:30AM-5:00PM Monday-Friday,6-12,,,,,(704) 377-4425
Charlotte-Mecklenburg Youth Council,35.217643,-80.842561,"700 East Stonewall St, Suite 710, Charlotte, NC 28202",28202,Walton Plaza,N/A,N/A,info@generationnation.org,http://www.generationnation.org,N/A,N/A,N/A,No,Yes,No,N/A,N/A,No,(704) 343-6999,No,http://www.generationnation.org,N/A,9-12,,,,,(704) 343-6999
GenerationNation,35.217643,-80.842561,"700 East Stonewall St, Suite 710, Charlotte, NC 28202",28202,Walton Plaza,N/A,N/A,info@generationnation.org,http://www.generationnation.org,N/A,N/A,N/A,No,Yes,No,N/A,N/A,No,(704) 343-6999,No,http://www.generationnation.org,N/A,K-12,,,,,(704) 343-6999
Right Moves for Youth,35.265404,-80.858518,"2219 Senior Dr, Charlotte, NC 28216",28216,West Charlotte High School,N/A,N/A,info@rightmovesforyouth.org,http://www.rightmovesforyouth.org,N/A,N/A,8:30AM-5PM Monday-Friday,No,Yes,No,Free,Yes,Limited,(704) 377-4425,No,http://www.rightmovesforyouth.org,8:30AM-5:00PM Monday-Friday,6-12,,,,,(704) 377-4425
Right Moves for Youth,35.247672,-80.952328,"7400 Tuckaseegee Rd, Charlotte, NC 28214",28214,West Mecklenburg ,N/A,N/A,info@rightmovesforyouth.org,http://www.rightmovesforyouth.org,N/A,N/A,8:30AM-5PM Monday-Friday,No,Yes,No,Free,Yes,Limited,(704) 377-4425,No,http://www.rightmovesforyouth.org,8:30AM-5:00PM Monday-Friday,6-12,,,,,(704) 377-4425
Right Moves for Youth,35.232096,-80.911073,"4420 Denver Ave, Charlotte, NC 28208",28208,Westerly Hills (k-8) ,N/A,N/A,info@rightmovesforyouth.org,http://www.rightmovesforyouth.org,N/A,N/A,8:30AM-5PM Monday-Friday,No,Yes,No,Free,Yes,Limited,(704) 377-4425,No,http://www.rightmovesforyouth.org,8:30AM-5:00PM Monday-Friday,6-12,,,,,(704) 377-4425
Right Moves for Youth,35.283877,-80.991983,"10201 Running Rappids Rd., Charlotte, NC, 28214",28214,Whitewater Middle School,N/A,N/A,info@rightmovesforyouth.org,http://www.rightmovesforyouth.org,N/A,N/A,8:30AM-5PM Monday-Friday,No,Yes,No,Free,Yes,Limited,(704) 377-4425,No,http://www.rightmovesforyouth.org,8:30AM-5:00PM Monday-Friday,6-12,,,,,(704) 377-4425
Your Destiny,35.203931,-80.720527,7212 Albemarle Rd Charlotte NC 28227,28227,Your Destiny,N/A,N/A,info@yourdestiny.org,http://www.yourdestinycamp.org,N/A,N/A,7AM-6PM,No,Yes,Yes,"$65/week afterschool, $100 summer camp, $115 day camp",N/A,Yes,(980) 207-0450,No,http://www.yourdestinycamp.org,7:00AM-6:00PM,K-12,,,,,(980) 207-0450
CMS After School Enrichment Program,35.113435,-80.72365,"200 E. McDowell Street Matthews, NC 28105",28105,Matthews Elementary School,N/A,Nakisha  Rhodes,nakisha.rhodes@cms.k12.nc.us,http://www.cms.k12.nc.us/cmsdepartments/asep,447,3940,7:45-2:45,No,Yes,No,$65,N/A,No,(980) 343-5567,No,http://www.cms.k12.nc.us/cmsdepartments/asep,7:45AM-2:45PM,PK-12,,,,,(980) 343-5567
CMS After School Enrichment Program,35.376292,-80.761943,"7260 Highland Creek Parkway Charlotte, NC 28269",28269,Ridge Road Middle School,N/A,Natasha  Boyd,natashaa.boyd@cms.k12.nc.us,http://www.cms.k12.nc.us/cmsdepartments/asep,518,344-3410,9:15AM-4:15PM,Yes,Yes,No,"$50-$55, varies by program",N/A,No,(980) 343-5567,Yes,http://www.cms.k12.nc.us/cmsdepartments/asep,9:15AM-4:15PM,PK-12,,,,,(980) 343-5567
CMS After School Enrichment Program,35.336863,-80.800899,"4215 David Cox Road Charlotte, NC 28269 Charlotte, NC 28269",28269,David Cox Road Elementary School,N/A,Natasha  Woodley ,natasham.woodley@cms.k12.nc.us,http://www.cms.k12.nc.us/cmsdepartments/asep,352,6535,8:15-3:15,Yes,Yes,No,"$30-$55, varies by program",N/A,No,(980) 343-5567,Yes,http://www.cms.k12.nc.us/cmsdepartments/asep,8:15AM-3:15PM,PK-12,,,,,(980) 343-5567
CMS After School Enrichment Program,35.130838,-81.000427,"12235 Winget Road Charlotte, NC 28278",28278,Winget Park Elementary School,N/A,Odessia Lighthall,odessia.williams@cms.k12.nc.us,http://www.cms.k12.nc.us/cmsdepartments/asep,588,1063,8:15-3:15,Yes,Yes,No,"$30-$55, varies by program",N/A,No,(980) 343-5567,Yes,http://www.cms.k12.nc.us/cmsdepartments/asep,8:15AM-3:15PM,PK-12,,,,,(980) 343-5567
CMS After School Enrichment Program,35.298025,-80.775323,"7810 Neal Road Charlotte, NC 28262",28262,Nathaniel Alexander Elementary School,N/A,Pam  Washington,pamela.washington@cms.k12.nc.us,http://www.cms.k12.nc.us/cmsdepartments/asep,,5775,7:45-2:45,No,Yes,No,$65,N/A,No,(980) 343-5567,No,http://www.cms.k12.nc.us/cmsdepartments/asep,7:45AM-2:45PM,PK-12,,,,,(980) 343-5567
CMS After School Enrichment Program,35.298025,-80.775323,"7810 Neal Road Charlotte, NC 28262",28262,Nathaniel Alexander Elementary School,N/A,Pam Washington,pamela.washington@cms.k12.nc.us,http://www.cms.k12.nc.us/cmsdepartments/asep,429,5775,8:45-3:45,Yes,Yes,No,"$40-$45, varies by program",N/A,No,(980) 343-5567,Yes,http://www.cms.k12.nc.us/cmsdepartments/asep,8:45AM-3:45PM,PK-12,,,,,(980) 343-5567
CMS After School Enrichment Program,35.283598,-80.991844,"11600 White Rapids Road Charlotte, NC 28214",28214,Whitewater Academy,N/A,Pamela Potts,pamelab.potts@cms.k12.nc.us,http://www.cms.k12.nc.us/cmsdepartments/asep,318,3,7:45-2:45,No,Yes,No,$65,N/A,No,(980) 343-5567,No,http://www.cms.k12.nc.us/cmsdepartments/asep,7:45AM-2:45PM,PK-12,,,,,(980) 343-5567
CMS After School Enrichment Program,35.160158,-80.715362,"3335 Sam Newell Road Matthews, NC 28105",28105,Crown Point Elementary School,N/A,Pauline  Spears,pauline.spears@cms.k12.nc.us,http://www.cms.k12.nc.us/cmsdepartments/asep,418,1785,8:15-3:15,Yes,Yes,No,"$30-$55, varies by program",N/A,No,(980) 343-5567,Yes,http://www.cms.k12.nc.us/cmsdepartments/asep,8:15AM-3:15PM,PK-12,,,,,(980) 343-5567
CMS After School Enrichment Program,35.378465,-80.76364,"7242 Highland Creek Parkway Charlotte, NC 28269",28269,Highland Creek Elementary School,N/A,Philomena McAfee,philomena.mcafee @cms.k12.nc.us,http://www.cms.k12.nc.us/cmsdepartments/asep,411,1065,8:00-3:00,Yes,Yes,No,"$25-$60, varies by program",N/A,No,(980) 343-5567,Yes,http://www.cms.k12.nc.us/cmsdepartments/asep,8:00AM-3:00PM,PK-12,,,,,(980) 343-5567
Mecklenburg County 4-H,35.216799,-80.825444,"1418 Armory Drive, Charlotte, NC 28204",28204,Mecklenburg County Cooperative Extension ,N/A,Racquel McNeil,racquel_mcneil@ncsu.edu,http://mecklenburg.ces.ncsu.edu/,N/A,N/A,8:30AM-5PM Monday-Friday,No,Yes,No,Varies,Minimal,No,(704) 336-2082,No,http://mecklenburg.ces.ncsu.edu/,8:30AM-5:00PM Monday-Friday,K-12,,,,,(704) 336-2082
Communities In Schools of Charlotte-Mecklenburg,35.223538,-80.836335,"601 E. 5th Street Suite 300, Charlotte, NC 28202",28202,Child & Family Services Building,N/A,Renee Leak,rleak@cischarlotte.org,http://www.cischarlotte.org,N/A,N/A,2:30-4:30 or 5PM,No,Yes,No,N/A,N/A,No,(704) 458-3536,No,http://www.cischarlotte.org,2:30-4:30PM/5PM,PK-12,,,,,(704) 458-3536
CMS After School Enrichment Program,35.24315,-80.804135,"3201 Clemson Avenue Charlotte, NC 28205",28205,Highland Mill Montessori Elementary School,N/A,Rhonda Beatty,rhonda.beatty@cms.k12.nc.us,http://www.cms.k12.nc.us/cmsdepartments/asep,413,5525,9:15AM-4:15PM,Yes,Yes,No,"$35-$50, varies by program",N/A,No,(980) 343-5567,Yes,http://www.cms.k12.nc.us/cmsdepartments/asep,9:15AM-4:15PM,PK-12,,,,,(980) 343-5567
CMS After School Enrichment Program,35.037092,-80.85643,"15425 Scholastic Drive Charlotte, NC 28277",28227,Ballantyne Elementary School,N/A,Richard  Hall,richardm.hall@cms.k12.nc.us,http://www.cms.k12.nc.us/cmsdepartments/asep,437,413,8:45AM-3:45PM,Yes,Yes,No,"$40-$45, varies by program",N/A,No,(980) 343-5567,Yes,http://www.cms.k12.nc.us/cmsdepartments/asep,8:15AM-3:15PM,PK-12,,,,,(980) 343-5567
CMS After School Enrichment Program,35.315563,-80.71422,"1600 Pavilion Blvd Charlotte, NC 28262",28262,University Meadows Elementary,N/A,Robyn Efird,robyn.efird@cms.k12.nc.us,http://www.cms.k12.nc.us/cmsdepartments/asep,566,3685,7:45-2:45,No,Yes,No,$65,N/A,No,(980) 343-5567,No,http://www.cms.k12.nc.us/cmsdepartments/asep,7:45AM-2:45PM,PK-12,,,,,(980) 343-5567
CMS After School Enrichment Program,35.169639,-80.771735,"1035 Rama Road Charlotte, NC 28211",28211,Rama Road Elementary School,N/A,Samantha  Jeffries,samanta.jeffries@cms.k12.nc.us,http://www.cms.k12.nc.us/cmsdepartments/asep,512,6730,7:45-2:45,No,Yes,No,$35,N/A,No,(980) 343-5567,No,http://www.cms.k12.nc.us/cmsdepartments/asep,7:45AM-2:45PM,PK-12,,,,,(980) 343-5567
CMS After School Enrichment Program,35.267449,-80.72527,"8330 Grier Road Charlotte, NC 28215",28215,J.W. Grier Academy,"Tution free, free for BSEP students",Sandra  Hancock,sandra.hancock@cms.k12.nc.us,http://www.cms.k12.nc.us/cmsdepartments/asep,432,5671,8:00-3:00,No,Yes,No,$60,Yes,No,(980) 343-5567,No,http://www.cms.k12.nc.us/cmsdepartments/asep,8:00AM-3:00PM,PK-12,,,,,(980) 343-5567
CMS After School Enrichment Program,35.047087,-80.795122,"11830 Tom Short Road Charlotte, NC 28277",28277,Polo Ridge Elementary School,N/A,Satina  Jones,satina.jones@cms.k12.nc.us,http://www.cms.k12.nc.us/cmsdepartments/asep,392,749,8:45-3:45,Yes,Yes,No,"$40-$45, varies by program",N/A,No,(980) 343-5567,Yes,http://www.cms.k12.nc.us/cmsdepartments/asep,8:45AM-3:45PM,PK-12,,,,,(980) 343-5567
CMS After School Enrichment Program,35.15501,-80.900259,7030 Nations Ford Road Charlotte NC 28217,28217,Waddell Language Academy,N/A,Sharee Moore,sharee.moore@cms.k12.nc.us,http://www.cms.k12.nc.us/cmsdepartments/asep,532,5815,8:15-3:15,Yes,Yes,No,"$30-$55, varies by program",N/A,No,(980) 343-5567,Yes,http://www.cms.k12.nc.us/cmsdepartments/asep,8:15AM-3:15PM,PK-12,,,,,(980) 343-5567
CMS After School Enrichment Program,35.306275,-80.828731,"6601 Horace Mann Road Charlotte, NC 28269",28269,Winding Springs Elementary School,N/A,Sharlyne Perkins,sharlyner.perkins@cms.k12.nc.us,http://www.cms.k12.nc.us/cmsdepartments/asep,586,5140,8:15-3:15,Yes,Yes,No,"$30-$55, varies by program",N/A,No,(980) 343-5567,Yes,http://www.cms.k12.nc.us/cmsdepartments/asep,8:15AM-3:15PM,PK-12,,,,,(980) 343-5567
CMS After School Enrichment Program,35.087375,-80.977155,"15340 Smith Road Charlotte, NC 28273",28273,River Gate Elementary School,N/A,Sharon Coleman,sharon.coleman@cms.k12.nc.us,http://www.cms.k12.nc.us/cmsdepartments/asep,590,344-1000,8:45-3:45,Yes,Yes,No,"$40-$45, varies by program",N/A,No,(980) 343-5567,Yes,http://www.cms.k12.nc.us/cmsdepartments/asep,8:45AM-3:45PM,PK-12,,,,,(980) 343-5567
CMS After School Enrichment Program,35.396971,-80.924613,"13345 Beatties Ford Road Huntersville, NC 28078",28078,Francis Bradley Middle School,N/A,Sharronda  Lee,sharrondan.lee@cms.k12.nc.us,http://www.cms.k12.nc.us/cmsdepartments/asep,368,5485,9:15AM-4:15PM,Yes,Yes,No,"$35-$50, varies by program",N/A,No,(980) 343-5567,Yes,http://www.cms.k12.nc.us/cmsdepartments/asep,9:15AM-4:15PM,PK-12,,,,,(980) 343-5567
CMS After School Enrichment Program,35.110386,-80.851586,"3200 Smithfield Church Road Charlotte, NC 28210",28210,Smithfield Elementary School,N/A,Shawn Coston,shawnj.coston@cms.k12.nc.us,http://www.cms.k12.nc.us/cmsdepartments/asep,534,6550,7:45-2:45,No,Yes,No,$65,N/A,No,(980) 343-5567,No,http://www.cms.k12.nc.us/cmsdepartments/asep,7:45AM-2:45PM,PK-12,,,,,(980) 343-5567
CMS After School Enrichment Program,35.112561,-80.747404,"121 Elizabeth Lane Matthews, NC 28105",28105,Elizabeth Lane Elementary School,N/A,Shawn Walker,shawn.walker@cms.k12.nc.us,http://www.cms.k12.nc.us/cmsdepartments/asep,379,5505,8:15-3:15,No,Yes,No,$55,N/A,No,(980) 343-5567,No,http://www.cms.k12.nc.us/cmsdepartments/asep,8:15AM-3:15PM,PK-12,,,,,(980) 343-5567
CMS After School Enrichment Program,35.15706,-80.955903,"4100 Gallant Lane Charlotte, NC 28273",28273,Steele Creek Elementary School,N/A,Sheena Hunter,sheena.hunter@cms.k12.nc.us,http://www.cms.k12.nc.us/cmsdepartments/asep,549,3810,7:45-2:45,No,Yes,No,$65,N/A,No,(980) 343-5567,No,http://www.cms.k12.nc.us/cmsdepartments/asep,7:45AM-2:45PM,PK-12,,,,,(980) 343-5567
CMS After School Enrichment Program,35.153029,-80.698389,"11501 Idlewild Road Matthews, NC 28105",28105,Mint Hill Middle School,N/A,Shena Ross-Fortson,shenar.ross-fortson@cms.k12.nc.us,http://www.cms.k12.nc.us/cmsdepartments/asep,455,5439,8:15-3:15,Yes,Yes,No,"$30-$55, varies by program",N/A,No,(980) 343-5567,Yes,http://www.cms.k12.nc.us/cmsdepartments/asep,8:15AM-3:15PM,PK-12,,,,,(980) 343-5567
CMS After School Enrichment Program,35.183907,-80.79475,"4400 Water Oak Road Charlotte, NC 28211",28211,Randolph Middle School,N/A,Sherry  Colleton,sherrya.colleton@cms.k12.nc.us,http://www.cms.k12.nc.us/cmsdepartments/asep,513,6700,9:15AM-4:15PM,Yes,Yes,No,"$35-$50, varies by program",N/A,No,(980) 343-5567,Yes,http://www.cms.k12.nc.us/cmsdepartments/asep,9:15AM-4:15PM,PK-12,,,,,(980) 343-5567
CMS After School Enrichment Program,35.307909,-80.92856,"7905 Pleasant Grove Road Charlotte, NC 28216",28216,Mountain Island Elementary School,N/A,Susan Brandau,susan.brandau@cms.k12.nc.us,http://www.cms.k12.nc.us/cmsdepartments/asep,462,6948,8:45-3:45,Yes,Yes,No,"$40-$45, varies by program",N/A,No,(980) 343-5567,Yes,http://www.cms.k12.nc.us/cmsdepartments/asep,8:45AM-3:45PM,PK-12,,,,,(980) 343-5567
CMS After School Enrichment Program,35.066801,-80.835075,"6815 Endhaven Lane Charlotte, NC 28277",28277,Endhaven Elementary School,N/A,Susan Lew,susan.lew@cms.k12.nc.us,http://www.cms.k12.nc.us/cmsdepartments/asep,383,1440,8:45-3:45,Yes,Yes,No,"$40-$45, varies by program",N/A,No,(980) 343-5567,Yes,http://www.cms.k12.nc.us/cmsdepartments/asep,8:45AM-3:45PM,PK-12,,,,,(980) 343-5567
CMS After School Enrichment Program,35.022569,-80.843265,"11425 Ardrey Kell Road Charlotte, NC 28277",28277,Elon Park Elementary School,N/A,Tameka  Davis,tameka.davis@cms.k12.nc.us,http://www.cms.k12.nc.us/cmsdepartments/asep,384,5475,9:15AM-4:15PM,Yes,Yes,No,"$35-$50, varies by program",N/A,No,(980) 343-5567,Yes,http://www.cms.k12.nc.us/cmsdepartments/asep,9:15AM-4:15PM,PK-12,,,,,(980) 343-5567
Bethlehem Center Believers & Achievers OST Program,35.205432,-80.871772,"2705 Baltimore Avenue, Charlotte, NC 28203",28203,Bethlehem Center Headstart in Charlotte,N/A,Tamisha Williams,twilliams@bethlehemcenter.org,http://www.bethlehemcenter.org,N/A,N/A,2-6PM Monday-Friday after school; 8AM-5PM (summer camp),No,Yes,Yes,Free,N/A,Limited,(704) 405-5984,No,http://www.bethlehemcenter.org,2:00-6:00PM Monday-Friday after school; 8:00AM-5:00PM (summer camp),K-5,,,,,(704) 405-5984
CMS After School Enrichment Program,35.081709,-80.828117,"9100 Carswell Lane Charlotte, NC 28277",28277,McAlpine Elementary School,Tuition free for BSEP students,Tammy  Hucks,tammy.hucks@cms.k12.nc.us,http://www.cms.k12.nc.us/cmsdepartments/asep,449,3750,7:45-2:45,No,Yes,No,$65,Yes,No,(980) 343-5567,No,http://www.cms.k12.nc.us/cmsdepartments/asep,7:45AM-2:45PM,PK-12,,,,,(980) 343-5567
Discovery Place Education Studio,35.230686,-80.842189,"300 N. Poplar Street, Charlotte, NC 28202",28202,The Discovery Place Education Studio,N/A,Teri Ward,teriw@discoveryplace.org,http://www.educationstudio.org,N/A,N/A,9AM-5PM,No,Yes,No,Varies - See Website,N/A,No,(704) 372-6261 x505,No,http://www.educationstudio.org,9:00AM-5:00PM,PK-12,,,,,(704) 372-6261 x505
CMS After School Enrichment Program,35.226351,-80.717395,"6709 Pence Road Charlotte, NC 28215",28215,Hickory Grove Recreation Center in Charlotte,N/A,Tiffany  Davis ,tiffanym.davis@cms.k12.nc.us,http://www.cms.k12.nc.us/cmsdepartments/asep,410,6488,9:15AM-4:15PM,Yes,Yes,No,"$35-$50, varies by program",N/A,No,(980) 343-5567,Yes,http://www.cms.k12.nc.us/cmsdepartments/asep,9:15AM-4:15PM,PK-12,,,,,(980) 343-5567
CMS After School Enrichment Program,35.110707,-80.798777,"3800 Rea Road Charlotte, NC 28226",28226,Olde Providence Elementary School,N/A,Tiffany  Saunders,tiffany.saunders@cms.k12.nc.us,http://www.cms.k12.nc.us/cmsdepartments/asep,491,3755,8:15-3:15,Yes,Yes,No,"$30-$55, varies by program",N/A,No,(980) 343-5567,Yes,http://www.cms.k12.nc.us/cmsdepartments/asep,8:15AM-3:15PM,PK-12,,,,,(980) 343-5567
CMS After School Enrichment Program,35.223199,-80.824478,"1241 East 10th Street Charlotte, NC 28204",28204,Piedmont Middle School,N/A,Tiffany  Threatt,tiffanym.threatt@cms.k12.nc.us,http://www.cms.k12.nc.us/cmsdepartments/asep,497,5435,9:15AM-4:15PM,Yes,Yes,No,"$35-$50, varies by program",N/A,No,(980) 343-5567,Yes,http://www.cms.k12.nc.us/cmsdepartments/asep,9:15AM-4:15PM,PK-12,,,,,(980) 343-5567
CMS After School Enrichment Program,35.265404,-80.858518,"2219 Senior Dr, Charlotte, NC 28216",28216,West Charlotte High School,N/A,Toni Gibson- Thompson,tm.gibson@cms.k12.nc.us,http://www.cms.k12.nc.us/cmsdepartments/asep,576,6060,7:15-2:15,Yes,Yes,No,Free,Yes,Yes,(980) 343-5567,Yes,http://www.cms.k12.nc.us/cmsdepartments/asep,7:15AM-2:15PM,PK-12,,,,,(980) 343-5567
CMS After School Enrichment Program,35.20794,-80.766968,3100 Winterfield Place Charlotte NC 28205,28205,Winterfield Elementary School,N/A,Trona Sterling,trona.sterling@cms.k12.nc.us,http://www.cms.k12.nc.us/cmsdepartments/asep,589,6400,7:45-2:45,No,Yes,No,$35,N/A,No,(980) 343-5567,No,http://www.cms.k12.nc.us/cmsdepartments/asep,7:45AM-2:45PM,PK-12,,,,,(980) 343-5567
CMS After School Enrichment Program,35.196406,-80.821349,"500 Cherokee Road Charlotte, NC 28207",28207,Eastover Elementary School,N/A,Vanessa  Coffey,vanessa.coffey@cms.k12.nc.us,http://www.cms.k12.nc.us/cmsdepartments/asep,374,5515,8:15-3:15,Yes,Yes,No,"$30-$55, varies by program",Yes,Yes,(980) 343-5567,Yes,http://www.cms.k12.nc.us/cmsdepartments/asep,8:15AM-3:15PM,PK-12,,,,,(980) 343-5567
CMS After School Enrichment Program,35.173716,-80.978808,"5910 Dixie River Road Charlotte, NC 28278",28278,Berewick Elementary School,N/A,Vernishia White,vernishia.white@cms.k12.nc.us,http://www.cms.k12.nc.us/cmsdepartments/asep,369,344-1010,8AM-3PM,No,Yes,No,$60,N/A,No,(980) 343-5567,No,http://www.cms.k12.nc.us/cmsdepartments/asep,9:15AM-4:15PM,PK-12,,,,,(980) 343-5567
CMS After School Enrichment Program,35.174878,-80.648733,"11524 Bain School Road Charlotte, NC 28227",28227,Bain Elementary School,N/A,Wandalaine Burch,wandalaine.burch@cms.k12.nc.us,http://www.cms.k12.nc.us/cmsdepartments/asep,314,6915,8:15AM-3:15PM,Yes,Yes,No,"$30-$55, varies by program",N/A,No,(980) 343-5567,Yes,http://www.cms.k12.nc.us/cmsdepartments/asep,8:15AM-3:15PM,PK-12,,,,,(980) 343-5567
CMS After School Enrichment Program,35.376686,-80.835128,"12202 Hambright Road Huntersville, NC 28078",28078,Blythe Elementary School,N/A,Wendy Glenn,wendy.glenn@cms.k12.nc.us,http://www.cms.k12.nc.us/cmsdepartments/asep,442,5770,8AM-3PM,Yes,Yes,No,"$25-$60, varies by program",N/A,No,(980) 343-5567,Yes,http://www.cms.k12.nc.us/cmsdepartments/asep,8:00AM-3:00PM,PK-12,,,,,(980) 343-5567
CMS After School Enrichment Program,35.198667,-80.729253,"7800 Riding Trail Road Charlotte, NC 28212",28212,Albemarle Road Elementary School,N/A,Willie Newsome,willie.newsome@cms.k12.nc.us,http://www.cms.k12.nc.us/cmsdepartments/asep,300,6414,7:45AM-2:45PM,No,Yes,No,$35,N/A,No,(980) 343-5567,No,http://www.cms.k12.nc.us/cmsdepartments/asep,7:45AM-2:45PM,PK-12,,,,,(980) 343-5567
CMS After School Enrichment Program,35.190394,-80.863366,715 Hartford Avenue Charlotte NC 28209,28209,Sedgefield Elementary School,N/A,Yolanda Wilson,yolanda.wilson@cms.k12.nc.us,http://www.cms.k12.nc.us/cmsdepartments/asep,519,5826,7:45-2:45,No,Yes,No,$35,N/A,No,(980) 343-5567,No,http://www.cms.k12.nc.us/cmsdepartments/asep,7:45AM-2:45PM,PK-12,,,,,(980) 343-5567